start=new Date('2023-01-10T00:00:00.000Z').valueOf();
sats=[{"TLE_LINE2":"2 52290  53.2145 244.2562 0002403  51.0632 309.0574 15.08841498 41349","RCS_SIZE":"LARGE","PERIAPSIS":"538.078","OBJECT_NAME":"STARLINK-3772","COUNTRY_CODE":"US","RA_OF_ASC_NODE":"244.2562","BSTAR":"0.00016245000000","GP_ID":"222516980","OBJECT_ID":"2022-041AF","MEAN_ANOMALY":"309.0574","APOAPSIS":"541.403","REF_FRAME":"TEME","FILE":"3737126","CENTER_NAME":"EARTH","MEAN_MOTION_DDOT":"0.0000000000000","ECCENTRICITY":"0.00024030","TIME_SYSTEM":"UTC","SITE":"AFETR","SEMIMAJOR_AXIS":"6917.876","EPOCH":"2023-01-09T15:50:16.923840","EPHEMERIS_TYPE":"0","REV_AT_EPOCH":"4134","DECAY_DATE":null,"LAUNCH_DATE":"2022-04-21","NORAD_CAT_ID":"52290","PERIOD":"95.437","CLASSIFICATION_TYPE":"U","TLE_LINE1":"1 52290U 22041AF  23009.65991810  .00002298  00000-0  16245-3 0  9992","INCLINATION":"53.2145","OBJECT_TYPE":"PAYLOAD","ARG_OF_PERICENTER":"51.0632","MEAN_ELEMENT_THEORY":"SGP4","ELEMENT_SET_NO":"999","MEAN_MOTION_DOT":"0.00002298","MEAN_MOTION":"15.08841498"},{"INCLINATION":"53.2149","OBJECT_TYPE":"PAYLOAD","MEAN_ELEMENT_THEORY":"SGP4","ARG_OF_PERICENTER":"21.0835","MEAN_MOTION_DOT":"0.00003200","MEAN_MOTION":"15.08841929","ELEMENT_SET_NO":"999","DECAY_DATE":null,"LAUNCH_DATE":"2022-04-21","REV_AT_EPOCH":"4008","EPOCH":"2023-01-09T08:18:27.055008","SEMIMAJOR_AXIS":"6917.874","EPHEMERIS_TYPE":"0","SITE":"AFETR","NORAD_CAT_ID":"52291","CLASSIFICATION_TYPE":"U","PERIOD":"95.437","TLE_LINE1":"1 52291U 22041AG  23009.34614647  .00003200  00000-0  21908-3 0  9995","APOAPSIS":"541.971","REF_FRAME":"TEME","MEAN_ANOMALY":"339.0289","MEAN_MOTION_DDOT":"0.0000000000000","CENTER_NAME":"EARTH","FILE":"3737263","ECCENTRICITY":"0.00032260","TIME_SYSTEM":"UTC","COUNTRY_CODE":"US","OBJECT_NAME":"STARLINK-3773","RA_OF_ASC_NODE":"245.6509","RCS_SIZE":"LARGE","TLE_LINE2":"2 52291  53.2149 245.6509 0003226  21.0835 339.0289 15.08841929 40081","PERIAPSIS":"537.508","GP_ID":"222544102","BSTAR":"0.00021908000000","OBJECT_ID":"2022-041AG"},{"MEAN_MOTION":"15.08851901","MEAN_MOTION_DOT":"0.00010296","ELEMENT_SET_NO":"999","MEAN_ELEMENT_THEORY":"SGP4","ARG_OF_PERICENTER":"44.0535","OBJECT_TYPE":"PAYLOAD","INCLINATION":"53.2161","TLE_LINE1":"1 52292U 22041AH  23009.45655484  .00010296  00000-0  66380-3 0  9998","CLASSIFICATION_TYPE":"U","PERIOD":"95.437","NORAD_CAT_ID":"52292","LAUNCH_DATE":"2022-04-21","DECAY_DATE":null,"REV_AT_EPOCH":"4010","SEMIMAJOR_AXIS":"6917.844","EPOCH":"2023-01-09T10:57:26.338176","EPHEMERIS_TYPE":"0","SITE":"AFETR","ECCENTRICITY":"0.00021070","TIME_SYSTEM":"UTC","MEAN_MOTION_DDOT":"0.0000000000000","CENTER_NAME":"EARTH","FILE":"3737263","REF_FRAME":"TEME","APOAPSIS":"541.167","MEAN_ANOMALY":"316.0625","OBJECT_ID":"2022-041AH","GP_ID":"222545353","BSTAR":"0.00066380000000","OBJECT_NAME":"STARLINK-3753","COUNTRY_CODE":"US","RA_OF_ASC_NODE":"245.1707","TLE_LINE2":"2 52292  53.2161 245.1707 0002107  44.0535 316.0625 15.08851901 40103","RCS_SIZE":"LARGE","PERIAPSIS":"538.251"},{"MEAN_ELEMENT_THEORY":"SGP4","ARG_OF_PERICENTER":"36.7661","ELEMENT_SET_NO":"999","MEAN_MOTION_DOT":"0.00018344","MEAN_MOTION":"15.08855514","INCLINATION":"53.2158","OBJECT_TYPE":"PAYLOAD","PERIOD":"95.437","CLASSIFICATION_TYPE":"U","TLE_LINE1":"1 52293U 22041AJ  23009.07015443  .00018344  00000-0  11671-2 0  9996","SEMIMAJOR_AXIS":"6917.833","EPOCH":"2023-01-09T01:41:01.342752","EPHEMERIS_TYPE":"0","SITE":"AFETR","LAUNCH_DATE":"2022-04-21","DECAY_DATE":null,"REV_AT_EPOCH":"4004","NORAD_CAT_ID":"52293","FILE":"3737263","MEAN_MOTION_DDOT":"0.0000000000000","CENTER_NAME":"EARTH","TIME_SYSTEM":"UTC","ECCENTRICITY":"0.00029120","REF_FRAME":"TEME","APOAPSIS":"541.712","MEAN_ANOMALY":"323.3530","BSTAR":"0.00116710000000","GP_ID":"222545103","OBJECT_ID":"2022-041AJ","TLE_LINE2":"2 52293  53.2158 246.9072 0002912  36.7661 323.3530 15.08855514 40049","RCS_SIZE":"LARGE","PERIAPSIS":"537.683","RA_OF_ASC_NODE":"246.9072","COUNTRY_CODE":"US","OBJECT_NAME":"STARLINK-3771"},{"GP_ID":"222581257","BSTAR":"0.00014438000000","OBJECT_ID":"2022-041AK","COUNTRY_CODE":"US","RA_OF_ASC_NODE":"244.2978","OBJECT_NAME":"STARLINK-3777","TLE_LINE2":"2 52294  53.2156 244.2978 0002305  38.7400 321.3757 15.08838765 41356","RCS_SIZE":"MEDIUM","PERIAPSIS":"538.155","CENTER_NAME":"EARTH","MEAN_MOTION_DDOT":"0.0000000000000","FILE":"3737597","TIME_SYSTEM":"UTC","ECCENTRICITY":"0.00023050","MEAN_ANOMALY":"321.3757","APOAPSIS":"541.344","REF_FRAME":"TEME","CLASSIFICATION_TYPE":"U","PERIOD":"95.438","TLE_LINE1":"1 52294U 22041AK  23009.65160017  .00002010  00000-0  14438-3 0  9997","REV_AT_EPOCH":"4135","DECAY_DATE":null,"LAUNCH_DATE":"2022-04-21","SITE":"AFETR","SEMIMAJOR_AXIS":"6917.884","EPHEMERIS_TYPE":"0","EPOCH":"2023-01-09T15:38:18.254688","NORAD_CAT_ID":"52294","ARG_OF_PERICENTER":"38.7400","MEAN_ELEMENT_THEORY":"SGP4","MEAN_MOTION_DOT":"0.00002010","MEAN_MOTION":"15.08838765","ELEMENT_SET_NO":"999","INCLINATION":"53.2156","OBJECT_TYPE":"PAYLOAD"},{"ECCENTRICITY":"0.00017310","TIME_SYSTEM":"UTC","FILE":"3737308","CENTER_NAME":"EARTH","MEAN_MOTION_DDOT":"0.0000000000000","MEAN_ANOMALY":"287.2251","REF_FRAME":"TEME","APOAPSIS":"540.945","OBJECT_ID":"2022-041AL","BSTAR":"0.00010148000000","GP_ID":"222574648","PERIAPSIS":"538.550","TLE_LINE2":"2 52295  53.2175 244.2369 0001731  72.8930 287.2251 15.08839387 41351","RCS_SIZE":"LARGE","RA_OF_ASC_NODE":"244.2369","COUNTRY_CODE":"US","OBJECT_NAME":"STARLINK-3765","ELEMENT_SET_NO":"999","MEAN_MOTION_DOT":"0.00001327","MEAN_MOTION":"15.08839387","ARG_OF_PERICENTER":"72.8930","MEAN_ELEMENT_THEORY":"SGP4","OBJECT_TYPE":"PAYLOAD","INCLINATION":"53.2175","TLE_LINE1":"1 52295U 22041AL  23009.66263995  .00001327  00000-0  10148-3 0  9992","PERIOD":"95.438","CLASSIFICATION_TYPE":"U","NORAD_CAT_ID":"52295","SITE":"AFETR","EPOCH":"2023-01-09T15:54:12.091680","SEMIMAJOR_AXIS":"6917.882","EPHEMERIS_TYPE":"0","REV_AT_EPOCH":"4135","DECAY_DATE":null,"LAUNCH_DATE":"2022-04-21"},{"OBJECT_TYPE":"PAYLOAD","INCLINATION":"53.2120","ELEMENT_SET_NO":"999","MEAN_MOTION_DOT":"0.00006599","MEAN_MOTION":"15.08855798","ARG_OF_PERICENTER":"46.9024","MEAN_ELEMENT_THEORY":"SGP4","NORAD_CAT_ID":"52296","SITE":"AFETR","EPOCH":"2023-01-09T15:22:24.058272","SEMIMAJOR_AXIS":"6917.832","EPHEMERIS_TYPE":"0","REV_AT_EPOCH":"4135","DECAY_DATE":null,"LAUNCH_DATE":"2022-04-21","TLE_LINE1":"1 52296U 22041AM  23009.64055623  .00006599  00000-0  43214-3 0  9994","PERIOD":"95.437","CLASSIFICATION_TYPE":"U","MEAN_ANOMALY":"313.2135","APOAPSIS":"541.078","REF_FRAME":"TEME","TIME_SYSTEM":"UTC","ECCENTRICITY":"0.00019960","FILE":"3737128","CENTER_NAME":"EARTH","MEAN_MOTION_DDOT":"0.0000000000000","TLE_LINE2":"2 52296  53.2120 244.3504 0001996  46.9024 313.2135 15.08855798 41358","PERIAPSIS":"538.316","RCS_SIZE":"LARGE","OBJECT_NAME":"STARLINK-3766","COUNTRY_CODE":"US","RA_OF_ASC_NODE":"244.3504","OBJECT_ID":"2022-041AM","BSTAR":"0.00043214000000","GP_ID":"222517006"},{"MEAN_ELEMENT_THEORY":"SGP4","ARG_OF_PERICENTER":"24.7618","MEAN_MOTION_DOT":"0.00008189","MEAN_MOTION":"15.08851727","ELEMENT_SET_NO":"999","INCLINATION":"53.2155","OBJECT_TYPE":"PAYLOAD","CLASSIFICATION_TYPE":"U","PERIOD":"95.437","TLE_LINE1":"1 52297U 22041AN  23009.06279610  .00008189  00000-0  53183-3 0  9998","REV_AT_EPOCH":"4004","DECAY_DATE":null,"LAUNCH_DATE":"2022-04-21","SEMIMAJOR_AXIS":"6917.845","EPHEMERIS_TYPE":"0","EPOCH":"2023-01-09T01:30:25.583040","SITE":"AFETR","NORAD_CAT_ID":"52297","MEAN_MOTION_DDOT":"0.0000000000000","CENTER_NAME":"EARTH","FILE":"3737263","ECCENTRICITY":"0.00030830","TIME_SYSTEM":"UTC","REF_FRAME":"TEME","APOAPSIS":"541.842","MEAN_ANOMALY":"335.3522","GP_ID":"222545604","BSTAR":"0.00053183000000","OBJECT_ID":"2022-041AN","OBJECT_NAME":"STARLINK-3758","COUNTRY_CODE":"US","RA_OF_ASC_NODE":"246.9320","TLE_LINE2":"2 52297  53.2155 246.9320 0003083  24.7618 335.3522 15.08851727 40041","PERIAPSIS":"537.577","RCS_SIZE":"LARGE"},{"COUNTRY_CODE":"US","RA_OF_ASC_NODE":"245.5519","OBJECT_NAME":"STARLINK-3760","TLE_LINE2":"2 52298  53.2121 245.5519 0001779  49.4865 310.6282 15.08846456 40095","RCS_SIZE":"LARGE","PERIAPSIS":"538.495","GP_ID":"222543853","BSTAR":"0.00031078000000","OBJECT_ID":"2022-041AP","MEAN_ANOMALY":"310.6282","REF_FRAME":"TEME","APOAPSIS":"540.956","CENTER_NAME":"EARTH","MEAN_MOTION_DDOT":"0.0000000000000","FILE":"3737263","TIME_SYSTEM":"UTC","ECCENTRICITY":"0.00017790","DECAY_DATE":null,"LAUNCH_DATE":"2022-04-21","REV_AT_EPOCH":"4009","SITE":"AFETR","SEMIMAJOR_AXIS":"6917.861","EPHEMERIS_TYPE":"0","EPOCH":"2023-01-09T08:55:33.204576","NORAD_CAT_ID":"52298","CLASSIFICATION_TYPE":"U","PERIOD":"95.437","TLE_LINE1":"1 52298U 22041AP  23009.37191209  .00004662  00000-0  31078-3 0  9991","INCLINATION":"53.2121","OBJECT_TYPE":"PAYLOAD","ARG_OF_PERICENTER":"49.4865","MEAN_ELEMENT_THEORY":"SGP4","MEAN_MOTION":"15.08846456","MEAN_MOTION_DOT":"0.00004662","ELEMENT_SET_NO":"999"},{"TLE_LINE2":"2 52299  53.2171 244.3337 0002955  35.0800 325.0386 15.08848905 41359","RCS_SIZE":"LARGE","PERIAPSIS":"537.674","COUNTRY_CODE":"US","OBJECT_NAME":"STARLINK-3759","RA_OF_ASC_NODE":"244.3337","BSTAR":"-0.00005383200000","GP_ID":"222517324","OBJECT_ID":"2022-041AQ","MEAN_ANOMALY":"325.0386","APOAPSIS":"541.762","REF_FRAME":"TEME","FILE":"3737138","CENTER_NAME":"EARTH","MEAN_MOTION_DDOT":"0.0000000000000","ECCENTRICITY":"0.00029550","TIME_SYSTEM":"UTC","SITE":"AFETR","EPHEMERIS_TYPE":"0","SEMIMAJOR_AXIS":"6917.853","EPOCH":"2023-01-09T15:27:40.597632","DECAY_DATE":null,"LAUNCH_DATE":"2022-04-21","REV_AT_EPOCH":"4135","NORAD_CAT_ID":"52299","PERIOD":"95.437","CLASSIFICATION_TYPE":"U","TLE_LINE1":"1 52299U 22041AQ  23009.64421988 -.00001146  00000-0 -53832-4 0  9991","INCLINATION":"53.2171","OBJECT_TYPE":"PAYLOAD","ARG_OF_PERICENTER":"35.0800","MEAN_ELEMENT_THEORY":"SGP4","ELEMENT_SET_NO":"999","MEAN_MOTION_DOT":"-0.00001146","MEAN_MOTION":"15.08848905"}];
